{
    "links": {
        "self": "http://www.neowsapp.com/rest/v1/neo/3252345?api_key=iIulBulltgU6a56xZRHN4H3l9WmuAYTsLGpBGhQ2"
    },
    "id": "3252345",
    "neo_reference_id": "3252345",
    "name": "(2004 RV164)",
    "designation": "2004 RV164",
    "nasa_jpl_url": "http://ssd.jpl.nasa.gov/sbdb.cgi?sstr=3252345",
    "absolute_magnitude_h": 24.3,
    "estimated_diameter": {
        "kilometers": {
            "estimated_diameter_min": 0.0366906138,
            "estimated_diameter_max": 0.0820427065
        },
        "meters": {
            "estimated_diameter_min": 36.6906137531,
            "estimated_diameter_max": 82.0427064882
        },
        "miles": {
            "estimated_diameter_min": 0.0227984834,
            "estimated_diameter_max": 0.0509789586
        },
        "feet": {
            "estimated_diameter_min": 120.3760332259,
            "estimated_diameter_max": 269.1689931548
        }
    },
    "is_potentially_hazardous_asteroid": false,
    "close_approach_data": [
        {
            "close_approach_date": "2004-09-08",
            "close_approach_date_full": "2004-Sep-08 12:39",
            "epoch_date_close_approach": 1094647140000,
            "relative_velocity": {
                "kilometers_per_second": "8.654126746",
                "kilometers_per_hour": "31154.8562855442",
                "miles_per_hour": "19358.4161180928"
            },
            "miss_distance": {
                "astronomical": "0.0288408997",
                "lunar": "11.2191099833",
                "kilometers": "4314537.164003639",
                "miles": "2680929.0773786582"
            },
            "orbiting_body": "Earth"
        }
    ],
    "orbital_data": {
        "orbit_id": "13",
        "orbit_determination_date": "2017-04-06 09:12:18",
        "first_observation_date": "2004-09-13",
        "last_observation_date": "2004-10-08",
        "data_arc_in_days": 25,
        "observations_used": 83,
        "orbit_uncertainty": "7",
        "minimum_orbit_intersection": ".00291696",
        "jupiter_tisserand_invariant": "3.273",
        "epoch_osculation": "2459000.5",
        "eccentricity": ".5800452778890374",
        "semi_major_axis": "2.400554319339363",
        "inclination": "2.563566945126202",
        "ascending_node_longitude": "326.1588615542811",
        "orbital_period": "1358.519051451256",
        "perihelion_distance": "1.008124122090433",
        "perihelion_argument": "2.731932067152668",
        "aphelion_distance": "3.792984516588292",
        "perihelion_time": "2458678.364644838633",
        "mean_anomaly": "85.36407916709518",
        "mean_motion": ".2649944434827214",
        "equinox": "J2000",
        "orbit_class": {
            "orbit_class_type": "APO",
            "orbit_class_description": "Near-Earth asteroid orbits which cross the Earth’s orbit similar to that of 1862 Apollo",
            "orbit_class_range": "a (semi-major axis) > 1.0 AU; q (perihelion) < 1.017 AU"
        }
    },
    "is_sentry_object": false
}